start=new Date('2022-12-15T00:00:00.000Z').valueOf();
sats=[{"CENTER_NAME":"EARTH","RA_OF_ASC_NODE":"123.7361","SITE":"AFETR","OBJECT_TYPE":"PAYLOAD","PERIOD":"95.593","MEAN_MOTION_DDOT":"0.0000000000000","NORAD_CAT_ID":"46702","PERIAPSIS":"546.264","INCLINATION":"53.0523","GP_ID":"220406086","COUNTRY_CODE":"US","DECAY_DATE":null,"SEMIMAJOR_AXIS":"6925.372","OBJECT_NAME":"STARLINK-1802","MEAN_ANOMALY":"297.0873","OBJECT_ID":"2020-073AJ","LAUNCH_DATE":"2020-10-18","REV_AT_EPOCH":"11939","MEAN_MOTION":"15.06392367","ARG_OF_PERICENTER":"63.0260","BSTAR":"0.00005959400000","ELEMENT_SET_NO":"999","TLE_LINE2":"2 46702  53.0523 123.7361 0001405  63.0260 297.0873 15.06392367119390","FILE":"3699647","TLE_LINE1":"1 46702U 20073AJ  22348.59960364  .00000606  00000-0  59594-4 0  9990","MEAN_ELEMENT_THEORY":"SGP4","APOAPSIS":"548.210","EPOCH":"2022-12-14T14:23:25.754496","EPHEMERIS_TYPE":"0","CLASSIFICATION_TYPE":"U","REF_FRAME":"TEME","TIME_SYSTEM":"UTC","ECCENTRICITY":"0.00014050","RCS_SIZE":"LARGE","MEAN_MOTION_DOT":"0.00000606"},{"RA_OF_ASC_NODE":"142.6995","CENTER_NAME":"EARTH","SITE":"AFETR","OBJECT_TYPE":"PAYLOAD","MEAN_MOTION_DDOT":"0.0000000000000","PERIOD":"95.592","NORAD_CAT_ID":"46703","INCLINATION":"53.0547","PERIAPSIS":"546.061","GP_ID":"220406836","COUNTRY_CODE":"US","DECAY_DATE":null,"SEMIMAJOR_AXIS":"6925.357","MEAN_ANOMALY":"295.2044","OBJECT_NAME":"STARLINK-1803","LAUNCH_DATE":"2020-10-18","OBJECT_ID":"2020-073AK","REV_AT_EPOCH":"11914","MEAN_MOTION":"15.06397394","ARG_OF_PERICENTER":"64.9119","BSTAR":"0.00015796000000","ELEMENT_SET_NO":"999","FILE":"3699647","TLE_LINE2":"2 46703  53.0547 142.6995 0001676  64.9119 295.2044 15.06397394119141","TLE_LINE1":"1 46703U 20073AK  22348.82997557  .00002072  00000-0  15796-3 0  9995","APOAPSIS":"548.382","MEAN_ELEMENT_THEORY":"SGP4","EPOCH":"2022-12-14T19:55:09.889248","EPHEMERIS_TYPE":"0","CLASSIFICATION_TYPE":"U","REF_FRAME":"TEME","TIME_SYSTEM":"UTC","ECCENTRICITY":"0.00016760","RCS_SIZE":"LARGE","MEAN_MOTION_DOT":"0.00002072"},{"EPHEMERIS_TYPE":"0","EPOCH":"2022-12-14T16:14:53.422080","TIME_SYSTEM":"UTC","REF_FRAME":"TEME","CLASSIFICATION_TYPE":"U","MEAN_MOTION_DOT":"0.00001107","RCS_SIZE":"LARGE","ECCENTRICITY":"0.00020680","ELEMENT_SET_NO":"999","FILE":"3699647","TLE_LINE2":"2 46704  53.0542 123.4040 0002068  46.7984 313.3178 15.06405465119407","APOAPSIS":"548.629","MEAN_ELEMENT_THEORY":"SGP4","TLE_LINE1":"1 46704U 20073AL  22348.67700720  .00001107  00000-0  93235-4 0  9996","INCLINATION":"53.0542","PERIAPSIS":"545.765","SEMIMAJOR_AXIS":"6925.332","DECAY_DATE":null,"COUNTRY_CODE":"US","GP_ID":"220406582","OBJECT_ID":"2020-073AL","LAUNCH_DATE":"2020-10-18","MEAN_ANOMALY":"313.3178","OBJECT_NAME":"STARLINK-1804","BSTAR":"0.00009323500000","ARG_OF_PERICENTER":"46.7984","MEAN_MOTION":"15.06405465","REV_AT_EPOCH":"11940","OBJECT_TYPE":"PAYLOAD","SITE":"AFETR","RA_OF_ASC_NODE":"123.4040","CENTER_NAME":"EARTH","NORAD_CAT_ID":"46704","PERIOD":"95.592","MEAN_MOTION_DDOT":"0.0000000000000"},{"ELEMENT_SET_NO":"999","FILE":"3699647","TLE_LINE2":"2 46705  53.0556 158.0346 0001648  59.2555 300.8597 15.06396907118924","TLE_LINE1":"1 46705U 20073AM  22348.75671940 -.00000239  00000-0  28783-5 0  9990","MEAN_ELEMENT_THEORY":"SGP4","APOAPSIS":"548.364","EPHEMERIS_TYPE":"0","EPOCH":"2022-12-14T18:09:40.556160","REF_FRAME":"TEME","CLASSIFICATION_TYPE":"U","TIME_SYSTEM":"UTC","ECCENTRICITY":"0.00016480","MEAN_MOTION_DOT":"-0.00000239","RCS_SIZE":"LARGE","SITE":"AFETR","RA_OF_ASC_NODE":"158.0346","CENTER_NAME":"EARTH","OBJECT_TYPE":"PAYLOAD","NORAD_CAT_ID":"46705","PERIOD":"95.592","MEAN_MOTION_DDOT":"0.0000000000000","PERIAPSIS":"546.082","INCLINATION":"53.0556","GP_ID":"220405341","SEMIMAJOR_AXIS":"6925.358","COUNTRY_CODE":"US","DECAY_DATE":null,"MEAN_ANOMALY":"300.8597","OBJECT_NAME":"STARLINK-1805","LAUNCH_DATE":"2020-10-18","OBJECT_ID":"2020-073AM","REV_AT_EPOCH":"11892","BSTAR":"0.00000287830000","ARG_OF_PERICENTER":"59.2555","MEAN_MOTION":"15.06396907"},{"ECCENTRICITY":"0.00017980","MEAN_MOTION_DOT":"-0.00000594","RCS_SIZE":"LARGE","REF_FRAME":"TEME","CLASSIFICATION_TYPE":"U","TIME_SYSTEM":"UTC","EPHEMERIS_TYPE":"0","EPOCH":"2022-12-14T15:56:19.825440","TLE_LINE1":"1 46706U 20073AN  22348.66411835 -.00000594  00000-0 -20952-4 0  9990","MEAN_ELEMENT_THEORY":"SGP4","APOAPSIS":"548.474","FILE":"3699647","TLE_LINE2":"2 46706  53.0516 143.4566 0001798  63.0782 297.0391 15.06395126119128","ELEMENT_SET_NO":"999","REV_AT_EPOCH":"11912","BSTAR":"-0.00002095200000","ARG_OF_PERICENTER":"63.0782","MEAN_MOTION":"15.06395126","MEAN_ANOMALY":"297.0391","OBJECT_NAME":"STARLINK-1807","LAUNCH_DATE":"2020-10-18","OBJECT_ID":"2020-073AN","GP_ID":"220405586","SEMIMAJOR_AXIS":"6925.363","COUNTRY_CODE":"US","DECAY_DATE":null,"INCLINATION":"53.0516","PERIAPSIS":"545.983","NORAD_CAT_ID":"46706","MEAN_MOTION_DDOT":"0.0000000000000","PERIOD":"95.592","SITE":"AFETR","CENTER_NAME":"EARTH","RA_OF_ASC_NODE":"143.4566","OBJECT_TYPE":"PAYLOAD"},{"PERIAPSIS":"545.978","INCLINATION":"53.0528","SEMIMAJOR_AXIS":"6925.349","COUNTRY_CODE":"US","DECAY_DATE":null,"GP_ID":"220406337","LAUNCH_DATE":"2020-10-18","OBJECT_ID":"2020-073AP","OBJECT_NAME":"STARLINK-1808","MEAN_ANOMALY":"285.8864","BSTAR":"0.00009399400000","ARG_OF_PERICENTER":"74.2322","MEAN_MOTION":"15.06399892","REV_AT_EPOCH":"11942","OBJECT_TYPE":"PAYLOAD","SITE":"AFETR","RA_OF_ASC_NODE":"122.9100","CENTER_NAME":"EARTH","NORAD_CAT_ID":"46707","PERIOD":"95.592","MEAN_MOTION_DDOT":"0.0000000000000","EPHEMERIS_TYPE":"0","EPOCH":"2022-12-14T18:54:07.463232","TIME_SYSTEM":"UTC","REF_FRAME":"TEME","CLASSIFICATION_TYPE":"U","MEAN_MOTION_DOT":"0.00001119","RCS_SIZE":"LARGE","ECCENTRICITY":"0.00017840","ELEMENT_SET_NO":"999","TLE_LINE2":"2 46707  53.0528 122.9100 0001784  74.2322 285.8864 15.06399892119424","FILE":"3699647","APOAPSIS":"548.449","MEAN_ELEMENT_THEORY":"SGP4","TLE_LINE1":"1 46707U 20073AP  22348.78758638  .00001119  00000-0  93994-4 0  9997"},{"OBJECT_TYPE":"PAYLOAD","RA_OF_ASC_NODE":"158.2801","CENTER_NAME":"EARTH","SITE":"AFETR","MEAN_MOTION_DDOT":"0.0000000000000","PERIOD":"95.593","NORAD_CAT_ID":"46709","PERIAPSIS":"546.217","INCLINATION":"53.0543","COUNTRY_CODE":"US","DECAY_DATE":null,"SEMIMAJOR_AXIS":"6925.390","GP_ID":"220407082","LAUNCH_DATE":"2020-10-18","OBJECT_ID":"2020-073AR","OBJECT_NAME":"STARLINK-1810","MEAN_ANOMALY":"291.0199","ARG_OF_PERICENTER":"69.0950","MEAN_MOTION":"15.06386588","BSTAR":"-0.00012840000000","REV_AT_EPOCH":"11891","ELEMENT_SET_NO":"999","TLE_LINE2":"2 46709  53.0543 158.2801 0001499  69.0950 291.0199 15.06386588118916","FILE":"3699647","MEAN_ELEMENT_THEORY":"SGP4","APOAPSIS":"548.293","TLE_LINE1":"1 46709U 20073AR  22348.73094970 -.00002193  00000-0 -12840-3 0  9991","EPOCH":"2022-12-14T17:32:34.054080","EPHEMERIS_TYPE":"0","TIME_SYSTEM":"UTC","CLASSIFICATION_TYPE":"U","REF_FRAME":"TEME","RCS_SIZE":"LARGE","MEAN_MOTION_DOT":"-0.00002193","ECCENTRICITY":"0.00014990"},{"PERIAPSIS":"546.150","INCLINATION":"53.0539","COUNTRY_CODE":"US","DECAY_DATE":null,"SEMIMAJOR_AXIS":"6925.366","GP_ID":"220405841","LAUNCH_DATE":"2020-10-18","OBJECT_ID":"2020-073AS","OBJECT_NAME":"STARLINK-1811","MEAN_ANOMALY":"293.7640","ARG_OF_PERICENTER":"66.3513","MEAN_MOTION":"15.06394432","BSTAR":"-0.00010148000000","REV_AT_EPOCH":"11893","OBJECT_TYPE":"PAYLOAD","RA_OF_ASC_NODE":"157.7761","CENTER_NAME":"EARTH","SITE":"AFETR","MEAN_MOTION_DDOT":"0.0000000000000","PERIOD":"95.592","NORAD_CAT_ID":"46710","EPOCH":"2022-12-14T19:34:36.872256","EPHEMERIS_TYPE":"0","TIME_SYSTEM":"UTC","CLASSIFICATION_TYPE":"U","REF_FRAME":"TEME","RCS_SIZE":"LARGE","MEAN_MOTION_DOT":"-0.00001792","ECCENTRICITY":"0.00015600","ELEMENT_SET_NO":"999","TLE_LINE2":"2 46710  53.0539 157.7761 0001560  66.3513 293.7640 15.06394432118935","FILE":"3699647","APOAPSIS":"548.311","MEAN_ELEMENT_THEORY":"SGP4","TLE_LINE1":"1 46710U 20073AS  22348.81570454 -.00001792  00000-0 -10148-3 0  9991"},{"OBJECT_TYPE":"PAYLOAD","SITE":"AFETR","RA_OF_ASC_NODE":"143.1857","CENTER_NAME":"EARTH","NORAD_CAT_ID":"46711","PERIOD":"95.592","MEAN_MOTION_DDOT":"0.0000000000000","PERIAPSIS":"546.138","INCLINATION":"53.0532","SEMIMAJOR_AXIS":"6925.352","DECAY_DATE":null,"COUNTRY_CODE":"US","GP_ID":"220406087","OBJECT_ID":"2020-073AT","LAUNCH_DATE":"2020-10-18","OBJECT_NAME":"STARLINK-1813","MEAN_ANOMALY":"287.4538","BSTAR":"-0.00002718500000","MEAN_MOTION":"15.06398733","ARG_OF_PERICENTER":"72.6621","REV_AT_EPOCH":"11913","ELEMENT_SET_NO":"999","FILE":"3699647","TLE_LINE2":"2 46711  53.0532 143.1857 0001558  72.6621 287.4538 15.06398733119138","MEAN_ELEMENT_THEORY":"SGP4","APOAPSIS":"548.296","TLE_LINE1":"1 46711U 20073AT  22348.72308372 -.00000686  00000-0 -27185-4 0  9991","EPHEMERIS_TYPE":"0","EPOCH":"2022-12-14T17:21:14.433408","TIME_SYSTEM":"UTC","REF_FRAME":"TEME","CLASSIFICATION_TYPE":"U","MEAN_MOTION_DOT":"-0.00000686","RCS_SIZE":"LARGE","ECCENTRICITY":"0.00015580"},{"MEAN_MOTION_DDOT":"0.0000000000000","PERIOD":"95.593","NORAD_CAT_ID":"46712","CENTER_NAME":"EARTH","RA_OF_ASC_NODE":"142.8148","SITE":"AFETR","OBJECT_TYPE":"PAYLOAD","REV_AT_EPOCH":"11914","MEAN_MOTION":"15.06393712","ARG_OF_PERICENTER":"68.2845","BSTAR":"0.00008146600000","MEAN_ANOMALY":"291.8304","OBJECT_NAME":"STARLINK-1814","OBJECT_ID":"2020-073AU","LAUNCH_DATE":"2020-10-18","GP_ID":"220406837","DECAY_DATE":null,"COUNTRY_CODE":"US","SEMIMAJOR_AXIS":"6925.368","INCLINATION":"53.0559","PERIAPSIS":"546.191","TLE_LINE1":"1 46712U 20073AU  22348.83368225  .00000932  00000-0  81466-4 0  9991","MEAN_ELEMENT_THEORY":"SGP4","APOAPSIS":"548.274","FILE":"3699647","TLE_LINE2":"2 46712  53.0559 142.8148 0001504  68.2845 291.8304 15.06393712119140","ELEMENT_SET_NO":"999","ECCENTRICITY":"0.00015040","RCS_SIZE":"LARGE","MEAN_MOTION_DOT":"0.00000932","CLASSIFICATION_TYPE":"U","REF_FRAME":"TEME","TIME_SYSTEM":"UTC","EPOCH":"2022-12-14T20:00:30.146400","EPHEMERIS_TYPE":"0"}];
